COMMENT,ORIGINATOR,NORAD_CAT_ID,OBJECT_NAME,OBJECT_TYPE,CLASSIFICATION_TYPE,INTLDES,EPOCH,EPOCH_MICROSECONDS,MEAN_MOTION,ECCENTRICITY,INCLINATION,RA_OF_ASC_NODE,ARG_OF_PERICENTER,MEAN_ANOMALY,EPHEMERIS_TYPE,ELEMENT_SET_NO,REV_AT_EPOCH,BSTAR,MEAN_MOTION_DOT,MEAN_MOTION_DDOT,FILE,TLE_LINE0,TLE_LINE1,TLE_LINE2,OBJECT_ID,OBJECT_NUMBER,SEMIMAJOR_AXIS,PERIOD,APOGEE,PERIGEE,DECAYED,date
GENERATED VIA SPACETRACK.ORG API,18 SPCS,46300,SPACEBEE-21,PAYLOAD,U,20061AE,2023/4/20 6:33,853248,15.54822742,0.0004362,97.4032,186.8907,219.5101,140.5836,0,999,14540,0.0030028,0.00204847,0,3890827,0 SPACEBEE-21,1 46300U 20061AE  23110.27320432  .00204847  00000-0  30028-2 0  9992,2 46300  97.4032 186.8907 0004362 219.5101 140.5836 15.54822742145404,2020-061AE,46300,6780.805,92.615,405.628,399.712,1,
GENERATED VIA SPACETRACK.ORG API,18 SPCS,46300,SPACEBEE-21,PAYLOAD,U,20061AE,2023/4/20 18:54,317312,15.550338,0.0004389,97.4027,187.4231,219.7559,140.3374,0,999,14548,0.0029685,0.00204049,0,3891109,0 SPACEBEE-21,1 46300U 20061AE  23110.78803608  .00204049  00000-0  29685-2 0  9990,2 46300  97.4027 187.4231 0004389 219.7559 140.3374 15.55033800145486,2020-061AE,46300,6780.191,92.602,405.032,399.081,1,
GENERATED VIA SPACETRACK.ORG API,18 SPCS,46300,SPACEBEE-21,PAYLOAD,U,20061AE,2023/4/21 4:10,392576,15.55197023,0.0004393,97.4025,187.8227,220.4076,139.6853,0,999,14554,0.0029755,0.00205797,0,3891529,0 SPACEBEE-21,1 46300U 20061AE  23111.17411334  .00205797  00000-0  29755-2 0  9994,2 46300  97.4025 187.8227 0004393 220.4076 139.6853 15.55197023145549,2020-061AE,46300,6779.717,92.593,404.56,398.604,1,
GENERATED VIA SPACETRACK.ORG API,18 SPCS,46300,SPACEBEE-21,PAYLOAD,U,20061AE,2023/4/22 0:15,495328,15.55548479,0.0004384,97.4025,188.6886,220.9371,139.1554,0,999,14567,0.0032984,0.00231845,0,3891850,0 SPACEBEE-21,1 46300U 20061AE  23112.01048027  .00231845  00000-0  32984-2 0  9994,2 46300  97.4025 188.6886 0004384 220.9371 139.1554 15.55548479145674,2020-061AE,46300,6778.696,92.572,403.533,397.589,1,
GENERATED VIA SPACETRACK.ORG API,18 SPCS,46300,SPACEBEE-21,PAYLOAD,U,20061AE,2023/4/22 4:52,743552,15.55655902,0.0004385,97.4024,188.8887,221.468,138.6242,0,999,14570,0.0034359,0.00242798,0,3891987,0 SPACEBEE-21,1 46300U 20061AE  23112.20345768  .00242798  00000-0  34359-2 0  9994,2 46300  97.4024 188.8887 0004385 221.4680 138.6242 15.55655902145708,2020-061AE,46300,6778.384,92.565,403.221,397.276,1,
GENERATED VIA SPACETRACK.ORG API,18 SPCS,46300,SPACEBEE-21,PAYLOAD,U,20061AE,2023/4/22 4:52,743552,15.55655902,0.0004385,97.4024,188.8887,221.468,138.6242,0,999,14570,0.0034359,0.00242798,0,3892071,0 SPACEBEE-21,1 46300U 20061AE  23112.20345768  .00242798  00000-0  34359-2 0  9994,2 46300  97.4024 188.8887 0004385 221.4680 138.6242 15.55655902145708,2020-061AE,46300,6778.384,92.565,403.221,397.276,1,
GENERATED VIA SPACETRACK.ORG API,18 SPCS,46300,SPACEBEE-21,PAYLOAD,U,20061AE,2023/4/22 18:46,273120,15.55889238,0.0004376,97.4023,189.4885,224.2978,135.7927,0,999,14579,0.002762,0.00195678,0,3892247,0 SPACEBEE-21,1 46300U 20061AE  23112.78232955  .00195678  00000-0  27620-2 0  9997,2 46300  97.4023 189.4885 0004376 224.2978 135.7927 15.55889238145791,2020-061AE,46300,6777.706,92.552,402.537,396.605,1,
GENERATED VIA SPACETRACK.ORG API,18 SPCS,46300,SPACEBEE-21,PAYLOAD,U,20061AE,2023/4/22 18:46,273120,15.55889238,0.0004376,97.4023,189.4885,224.2978,135.7927,0,999,14579,0.002762,0.00195678,0,3892285,0 SPACEBEE-21,1 46300U 20061AE  23112.78232955  .00195678  00000-0  27620-2 0  9997,2 46300  97.4023 189.4885 0004376 224.2978 135.7927 15.55889238145791,2020-061AE,46300,6777.706,92.552,402.537,396.605,1,
GENERATED VIA SPACETRACK.ORG API,18 SPCS,46300,SPACEBEE-21,PAYLOAD,U,20061AE,2023/4/23 14:50,626816,15.56253073,0.0004364,97.4016,190.3546,223.4734,136.6177,0,999,14592,0.0032072,0.0023132,0,3892768,0 SPACEBEE-21,1 46300U 20061AE  23113.61831744  .00231320  00000-0  32072-2 0  9993,2 46300  97.4016 190.3546 0004364 223.4734 136.6177 15.56253073145921,2020-061AE,46300,6776.65,92.53,401.472,395.557,1,
GENERATED VIA SPACETRACK.ORG API,18 SPCS,46300,SPACEBEE-21,PAYLOAD,U,20061AE,2023/4/23 14:50,626816,15.56253073,0.0004364,97.4016,190.3546,223.4734,136.6177,0,999,14592,0.0032072,0.0023132,0,3892831,0 SPACEBEE-21,1 46300U 20061AE  23113.61831744  .00231320  00000-0  32072-2 0  9993,2 46300  97.4016 190.3546 0004364 223.4734 136.6177 15.56253073145921,2020-061AE,46300,6776.65,92.53,401.472,395.557,1,
GENERATED VIA SPACETRACK.ORG API,18 SPCS,46300,SPACEBEE-21,PAYLOAD,U,20061AE,2023/4/24 4:43,209920,15.56734747,0.0004537,97.4017,190.9547,222.9718,137.1183,0,999,14601,0.0075966,0.00583024,0,3892958,0 SPACEBEE-21,1 46300U 20061AE  23114.19693530  .00583024  00000-0  75966-2 0  9996,2 46300  97.4017 190.9547 0004537 222.9718 137.1183 15.56734747146013,2020-061AE,46300,6775.252,92.501,400.191,394.043,1,
GENERATED VIA SPACETRACK.ORG API,18 SPCS,46300,SPACEBEE-21,PAYLOAD,U,20061AE,2023/4/24 6:16,970816,15.56806534,0.0004626,97.4019,191.0214,223.8319,136.257,0,999,14602,0.0082691,0.00640989,0,3893330,0 SPACEBEE-21,1 46300U 20061AE  23114.26121494  .00640989  00000-0  82691-2 0  9996,2 46300  97.4019 191.0214 0004626 223.8319 136.2570 15.56806534146029,2020-061AE,46300,6775.043,92.497,400.042,393.774,1,
GENERATED VIA SPACETRACK.ORG API,18 SPCS,46300,SPACEBEE-21,PAYLOAD,U,20061AE,2023/4/25 3:51,205632,15.57298474,0.0004648,97.4011,191.9554,224.2575,135.8309,0,999,14616,0.0030667,0.00229859,0,3893706,0 SPACEBEE-21,1 46300U 20061AE  23115.16093988  .00229859  00000-0  30667-2 0  9997,2 46300  97.4011 191.9554 0004648 224.2575 135.8309 15.57298474146169,2020-061AE,46300,6773.616,92.468,398.63,392.333,1,
GENERATED VIA SPACETRACK.ORG API,18 SPCS,46300,SPACEBEE-21,PAYLOAD,U,20061AE,2023/4/25 3:51,205632,15.57298474,0.0004648,97.4011,191.9554,224.2575,135.8309,0,999,14616,0.0030667,0.00229859,0,3894092,0 SPACEBEE-21,1 46300U 20061AE  23115.16093988  .00229859  00000-0  30667-2 0  9997,2 46300  97.4011 191.9554 0004648 224.2575 135.8309 15.57298474146169,2020-061AE,46300,6773.616,92.468,398.63,392.333,1,
GENERATED VIA SPACETRACK.ORG API,18 SPCS,46300,SPACEBEE-21,PAYLOAD,U,20061AE,2023/4/26 2:59,754624,15.57640362,0.0004588,97.4006,192.9562,223.9881,136.101,0,999,14631,0.0027238,0.00206145,0,3894208,0 SPACEBEE-21,1 46300U 20061AE  23116.12468466  .00206145  00000-0  27238-2 0  9994,2 46300  97.4006 192.9562 0004588 223.9881 136.1010 15.57640362146319,2020-061AE,46300,6772.625,92.448,397.598,391.383,1,
GENERATED VIA SPACETRACK.ORG API,18 SPCS,46300,SPACEBEE-21,PAYLOAD,U,20061AE,2023/4/26 10:42,317984,15.5775351,0.0004746,97.4005,193.2903,224.7355,135.3519,0,999,14636,0.0025522,0.00193671,0,3894260,0 SPACEBEE-21,1 46300U 20061AE  23116.44588331  .00193671  00000-0  25522-2 0  9996,2 46300  97.4005 193.2903 0004746 224.7355 135.3519 15.57753510146362,2020-061AE,46300,6772.297,92.441,397.376,390.948,1,
GENERATED VIA SPACETRACK.ORG API,18 SPCS,46300,SPACEBEE-21,PAYLOAD,U,20061AE,2023/4/27 3:39,110976,15.58037467,0.0004774,97.4008,194.0246,224.6658,135.4213,0,999,14647,0.0027226,0.00209211,0,3894422,0 SPACEBEE-21,1 46300U 20061AE  23117.15243184  .00209211  00000-0  27226-2 0  9990,2 46300  97.4008 194.0246 0004774 224.6658 135.4213 15.58037467146471,2020-061AE,46300,6771.474,92.424,396.572,390.107,1,
GENERATED VIA SPACETRACK.ORG API,18 SPCS,46300,SPACEBEE-21,PAYLOAD,U,20061AE,2023/4/27 6:44,53600,15.58097174,0.0004765,97.4008,194.1578,224.0068,136.0809,0,999,14649,0.0027497,0.00211835,0,3894751,0 SPACEBEE-21,1 46300U 20061AE  23117.28088025  .00211835  00000-0  27497-2 0  9990,2 46300  97.4008 194.1578 0004765 224.0068 136.0809 15.58097174146490,2020-061AE,46300,6771.301,92.42,396.393,389.94,1,
GENERATED VIA SPACETRACK.ORG API,18 SPCS,46300,SPACEBEE-21,PAYLOAD,U,20061AE,2023/4/27 19:04,975840,15.58333444,0.0004773,97.4002,194.6916,222.0298,138.0593,0,999,14657,0.0031724,0.00247681,0,3894998,0 SPACEBEE-21,1 46300U 20061AE  23117.79462935  .00247681  00000-0  31724-2 0  9998,2 46300  97.4002 194.6916 0004773 222.0298 138.0593 15.58333444146571,2020-061AE,46300,6770.617,92.406,395.714,389.25,1,
GENERATED VIA SPACETRACK.ORG API,18 SPCS,46300,SPACEBEE-21,PAYLOAD,U,20061AE,2023/4/28 5:51,755296,15.58534453,0.0004949,97.3995,195.1589,220.2137,139.8753,0,999,14664,0.0027532,0.00215712,0,3895331,0 SPACEBEE-21,1 46300U 20061AE  23118.24409439  .00215712  00000-0  27532-2 0  9991,2 46300  97.3995 195.1589 0004949 220.2137 139.8753 15.58534453146648,2020-061AE,46300,6770.035,92.394,395.25,388.549,1,
GENERATED VIA SPACETRACK.ORG API,18 SPCS,46300,SPACEBEE-21,PAYLOAD,U,20061AE,2023/4/28 5:51,755296,15.58534453,0.0004949,97.3995,195.1589,220.2137,139.8753,0,999,14664,0.0027532,0.00215712,0,3895770,0 SPACEBEE-21,1 46300U 20061AE  23118.24409439  .00215712  00000-0  27532-2 0  9991,2 46300  97.3995 195.1589 0004949 220.2137 139.8753 15.58534453146648,2020-061AE,46300,6770.035,92.394,395.25,388.549,1,
GENERATED VIA SPACETRACK.ORG API,18 SPCS,46300,SPACEBEE-21,PAYLOAD,U,20061AE,2023/4/29 3:25,607200,15.58942562,0.000495,97.4001,196.0944,221.6507,138.4373,0,999,14678,0.0029849,0.00238143,0,3896257,0 SPACEBEE-21,1 46300U 20061AE  23119.14285425  .00238143  00000-0  29849-2 0  9994,2 46300  97.4001 196.0944 0004950 221.6507 138.4373 15.58942562146782,2020-061AE,46300,6768.853,92.37,394.069,387.368,1,
GENERATED VIA SPACETRACK.ORG API,18 SPCS,46300,SPACEBEE-21,PAYLOAD,U,20061AE,2023/4/29 6:30,122528,15.58998752,0.0005007,97.4005,196.2277,222.105,137.9822,0,999,14680,0.0027597,0.00220145,0,3896517,0 SPACEBEE-21,1 46300U 20061AE  23119.27122827  .00220145  00000-0  27597-2 0  9995,2 46300  97.4005 196.2277 0005007 222.1050 137.9822 15.58998752146808,2020-061AE,46300,6768.691,92.367,393.945,387.167,1,
